<?xml version='1.0' encoding='UTF-8'?>
<gpx version="1.1" creator="https://www.komoot.de" xmlns="http://www.topografix.com/GPX/1/1" xmlns:xsi="http://www.w3.org/2001/XMLSchema-instance" xsi:schemaLocation="http://www.topografix.com/GPX/1/1 http://www.topografix.com/GPX/1/1/gpx.xsd">
  <metadata>
    <name>Wandeling Uten versie 4</name>
    <author>
      <link href="https://www.komoot.de">
        <text>komoot</text>
        <type>text/html</type>
      </link>
    </author>
  </metadata>
  <wpt lat="50.988078" lon="5.065686">
    <name>Hondenlosloopzone Webbekoms Broek</name>
    <sym>Picnic Area</sym>
  </wpt>
  <wpt lat="50.983461" lon="5.054738">
    <name>De Sigaret</name>
    <sym>Restaurant</sym>
  </wpt>
  <trk>
    <name>Wandeling Uten versie 4</name>
    <type>hike</type>
    <trkseg>
      <trkpt lat="50.983498" lon="5.046046">
        <ele>44.889287</ele>
        <time>2026-07-29T12:33:32.438Z</time>
      </trkpt>
      <trkpt lat="50.983392" lon="5.046133">
        <ele>44.889287</ele>
        <time>2026-07-29T12:33:44.953Z</time>
      </trkpt>
      <trkpt lat="50.983320" lon="5.046272">
        <ele>44.889287</ele>
        <time>2026-07-29T12:33:56.926Z</time>
      </trkpt>
      <trkpt lat="50.982589" lon="5.047252">
        <ele>44.504016</ele>
        <time>2026-07-29T12:35:37.189Z</time>
      </trkpt>
      <trkpt lat="50.982568" lon="5.047282">
        <ele>44.466476</ele>
        <time>2026-07-29T12:35:40.118Z</time>
      </trkpt>
      <trkpt lat="50.982517" lon="5.047342">
        <ele>44.382123</ele>
        <time>2026-07-29T12:35:46.740Z</time>
      </trkpt>
      <trkpt lat="50.982312" lon="5.047641">
        <ele>44.012211</ele>
        <time>2026-07-29T12:36:15.952Z</time>
      </trkpt>
      <trkpt lat="50.982158" lon="5.047448">
        <ele>43.751488</ele>
        <time>2026-07-29T12:36:36.306Z</time>
      </trkpt>
      <trkpt lat="50.982030" lon="5.047181">
        <ele>43.470671</ele>
        <time>2026-07-29T12:36:58.129Z</time>
      </trkpt>
      <trkpt lat="50.981982" lon="5.046953">
        <ele>43.269503</ele>
        <time>2026-07-29T12:37:13.762Z</time>
      </trkpt>
      <trkpt lat="50.981403" lon="5.045244">
        <ele>43.254700</ele>
        <time>2026-07-29T12:39:16.293Z</time>
      </trkpt>
      <trkpt lat="50.981394" lon="5.045146">
        <ele>43.328140</ele>
        <time>2026-07-29T12:39:22.620Z</time>
      </trkpt>
      <trkpt lat="50.981589" lon="5.044916">
        <ele>43.614217</ele>
        <time>2026-07-29T12:39:47.577Z</time>
      </trkpt>
      <trkpt lat="50.981693" lon="5.044354">
        <ele>44.048588</ele>
        <time>2026-07-29T12:40:26.481Z</time>
      </trkpt>
      <trkpt lat="50.982354" lon="5.043655">
        <ele>45.129785</ele>
        <time>2026-07-29T12:41:54.174Z</time>
      </trkpt>
      <trkpt lat="50.982472" lon="5.043424">
        <ele>45.438123</ele>
        <time>2026-07-29T12:42:15.163Z</time>
      </trkpt>
      <trkpt lat="50.982792" lon="5.042294">
        <ele>46.722417</ele>
        <time>2026-07-29T12:43:39.455Z</time>
      </trkpt>
      <trkpt lat="50.982884" lon="5.042196">
        <ele>46.904793</ele>
        <time>2026-07-29T12:43:50.929Z</time>
      </trkpt>
      <trkpt lat="50.983084" lon="5.042147">
        <ele>47.237969</ele>
        <time>2026-07-29T12:44:11.504Z</time>
      </trkpt>
      <trkpt lat="50.983424" lon="5.042479">
        <ele>47.058254</ele>
        <time>2026-07-29T12:44:51.888Z</time>
      </trkpt>
      <trkpt lat="50.983620" lon="5.042671">
        <ele>46.435211</ele>
        <time>2026-07-29T12:45:15.818Z</time>
      </trkpt>
      <trkpt lat="50.983675" lon="5.042781">
        <ele>46.195939</ele>
        <time>2026-07-29T12:45:25.075Z</time>
      </trkpt>
      <trkpt lat="50.984031" lon="5.042923">
        <ele>45.202820</ele>
        <time>2026-07-29T12:46:03.426Z</time>
      </trkpt>
      <trkpt lat="50.984523" lon="5.042966">
        <ele>43.869621</ele>
        <time>2026-07-29T12:46:56.770Z</time>
      </trkpt>
      <trkpt lat="50.984690" lon="5.042865">
        <ele>43.386135</ele>
        <time>2026-07-29T12:47:16.321Z</time>
      </trkpt>
      <trkpt lat="50.984651" lon="5.042669">
        <ele>43.036010</ele>
        <time>2026-07-29T12:47:30.501Z</time>
      </trkpt>
      <trkpt lat="50.984528" lon="5.042439">
        <ele>42.471748</ele>
        <time>2026-07-29T12:47:51.211Z</time>
      </trkpt>
      <trkpt lat="50.984578" lon="5.042384">
        <ele>42.263689</ele>
        <time>2026-07-29T12:47:57.764Z</time>
      </trkpt>
      <trkpt lat="50.984670" lon="5.042375">
        <ele>41.948360</ele>
        <time>2026-07-29T12:48:07.727Z</time>
      </trkpt>
      <trkpt lat="50.984810" lon="5.042621">
        <ele>41.234174</ele>
        <time>2026-07-29T12:48:30.220Z</time>
      </trkpt>
      <trkpt lat="50.984887" lon="5.042627">
        <ele>40.970439</ele>
        <time>2026-07-29T12:48:38.497Z</time>
      </trkpt>
      <trkpt lat="50.984953" lon="5.042678">
        <ele>40.719356</ele>
        <time>2026-07-29T12:48:46.266Z</time>
      </trkpt>
      <trkpt lat="50.985029" lon="5.042968">
        <ele>40.042853</ele>
        <time>2026-07-29T12:49:07.245Z</time>
      </trkpt>
      <trkpt lat="50.985065" lon="5.043317">
        <ele>39.281222</ele>
        <time>2026-07-29T12:49:30.551Z</time>
      </trkpt>
      <trkpt lat="50.985052" lon="5.044359">
        <ele>37.036728</ele>
        <time>2026-07-29T12:50:40.015Z</time>
      </trkpt>
      <trkpt lat="50.984985" lon="5.044538">
        <ele>36.588238</ele>
        <time>2026-07-29T12:50:53.889Z</time>
      </trkpt>
      <trkpt lat="50.984940" lon="5.044884">
        <ele>35.240406</ele>
        <time>2026-07-29T12:51:17.574Z</time>
      </trkpt>
      <trkpt lat="50.984839" lon="5.045263">
        <ele>33.642827</ele>
        <time>2026-07-29T12:51:46.546Z</time>
      </trkpt>
      <trkpt lat="50.984839" lon="5.045721">
        <ele>31.864976</ele>
        <time>2026-07-29T12:52:19.553Z</time>
      </trkpt>
      <trkpt lat="50.984882" lon="5.046135">
        <ele>30.236197</ele>
        <time>2026-07-29T12:52:49.821Z</time>
      </trkpt>
      <trkpt lat="50.984868" lon="5.046255">
        <ele>29.762454</ele>
        <time>2026-07-29T12:52:58.624Z</time>
      </trkpt>
      <trkpt lat="50.984855" lon="5.046343">
        <ele>29.411579</ele>
        <time>2026-07-29T12:53:05.179Z</time>
      </trkpt>
      <trkpt lat="50.984838" lon="5.046516">
        <ele>28.731900</ele>
        <time>2026-07-29T12:53:17.797Z</time>
      </trkpt>
      <trkpt lat="50.984983" lon="5.046569">
        <ele>27.814440</ele>
        <time>2026-07-29T12:53:34.992Z</time>
      </trkpt>
      <trkpt lat="50.985033" lon="5.046585">
        <ele>27.499937</ele>
        <time>2026-07-29T12:53:40.928Z</time>
      </trkpt>
      <trkpt lat="50.985132" lon="5.046622">
        <ele>26.872817</ele>
        <time>2026-07-29T12:53:52.657Z</time>
      </trkpt>
      <trkpt lat="50.985207" lon="5.046648">
        <ele>26.399469</ele>
        <time>2026-07-29T12:54:01.510Z</time>
      </trkpt>
      <trkpt lat="50.985207" lon="5.046716">
        <ele>26.135511</ele>
        <time>2026-07-29T12:54:06.481Z</time>
      </trkpt>
      <trkpt lat="50.985043" lon="5.047270">
        <ele>24.833332</ele>
        <time>2026-07-29T12:54:50.452Z</time>
      </trkpt>
      <trkpt lat="50.984993" lon="5.047538">
        <ele>24.430338</ele>
        <time>2026-07-29T12:55:10.022Z</time>
      </trkpt>
      <trkpt lat="50.984972" lon="5.047809">
        <ele>24.036681</ele>
        <time>2026-07-29T12:55:28.903Z</time>
      </trkpt>
      <trkpt lat="50.984973" lon="5.048074">
        <ele>23.654617</ele>
        <time>2026-07-29T12:55:46.649Z</time>
      </trkpt>
      <trkpt lat="50.985009" lon="5.048470">
        <ele>23.077771</ele>
        <time>2026-07-29T12:56:11.923Z</time>
      </trkpt>
      <trkpt lat="50.985093" lon="5.049018">
        <ele>22.264622</ele>
        <time>2026-07-29T12:56:48.215Z</time>
      </trkpt>
      <trkpt lat="50.985189" lon="5.049328">
        <ele>21.766538</ele>
        <time>2026-07-29T12:57:10.523Z</time>
      </trkpt>
      <trkpt lat="50.985318" lon="5.049631">
        <ele>21.355247</ele>
        <time>2026-07-29T12:57:34.317Z</time>
      </trkpt>
      <trkpt lat="50.985362" lon="5.049687">
        <ele>21.362818</ele>
        <time>2026-07-29T12:57:40.133Z</time>
      </trkpt>
      <trkpt lat="50.985346" lon="5.049704">
        <ele>21.365403</ele>
        <time>2026-07-29T12:57:42.104Z</time>
      </trkpt>
      <trkpt lat="50.985255" lon="5.049803">
        <ele>21.380214</ele>
        <time>2026-07-29T12:57:53.555Z</time>
      </trkpt>
      <trkpt lat="50.985191" lon="5.049872">
        <ele>21.390601</ele>
        <time>2026-07-29T12:58:01.585Z</time>
      </trkpt>
      <trkpt lat="50.985114" lon="5.049907">
        <ele>21.401356</ele>
        <time>2026-07-29T12:58:09.846Z</time>
      </trkpt>
      <trkpt lat="50.985324" lon="5.049955">
        <ele>21.429846</ele>
        <time>2026-07-29T12:58:31.348Z</time>
      </trkpt>
      <trkpt lat="50.985594" lon="5.050151">
        <ele>21.469710</ele>
        <time>2026-07-29T12:59:01.382Z</time>
      </trkpt>
      <trkpt lat="50.985684" lon="5.050315">
        <ele>21.488102</ele>
        <time>2026-07-29T12:59:15.175Z</time>
      </trkpt>
      <trkpt lat="50.985732" lon="5.050479">
        <ele>21.503391</ele>
        <time>2026-07-29T12:59:26.580Z</time>
      </trkpt>
      <trkpt lat="50.985827" lon="5.051012">
        <ele>21.550219</ele>
        <time>2026-07-29T13:00:01.673Z</time>
      </trkpt>
      <trkpt lat="50.985837" lon="5.051064">
        <ele>21.554815</ele>
        <time>2026-07-29T13:00:05.140Z</time>
      </trkpt>
      <trkpt lat="50.985947" lon="5.051005">
        <ele>21.570406</ele>
        <time>2026-07-29T13:00:16.905Z</time>
      </trkpt>
      <trkpt lat="50.986060" lon="5.051031">
        <ele>21.585738</ele>
        <time>2026-07-29T13:00:28.393Z</time>
      </trkpt>
      <trkpt lat="50.986087" lon="5.051079">
        <ele>21.587383</ele>
        <time>2026-07-29T13:00:32.493Z</time>
      </trkpt>
      <trkpt lat="50.986151" lon="5.051056">
        <ele>21.555888</ele>
        <time>2026-07-29T13:00:39.196Z</time>
      </trkpt>
      <trkpt lat="50.986171" lon="5.051065">
        <ele>21.545910</ele>
        <time>2026-07-29T13:00:41.281Z</time>
      </trkpt>
      <trkpt lat="50.986478" lon="5.050872">
        <ele>21.387436</ele>
        <time>2026-07-29T13:01:14.791Z</time>
      </trkpt>
      <trkpt lat="50.986675" lon="5.050907">
        <ele>21.292289</ele>
        <time>2026-07-29T13:01:34.891Z</time>
      </trkpt>
      <trkpt lat="50.986840" lon="5.050982">
        <ele>21.209914</ele>
        <time>2026-07-29T13:01:52.283Z</time>
      </trkpt>
      <trkpt lat="50.987125" lon="5.050924">
        <ele>21.072000</ele>
        <time>2026-07-29T13:02:21.174Z</time>
      </trkpt>
      <trkpt lat="50.987281" lon="5.050813">
        <ele>20.989955</ele>
        <time>2026-07-29T13:02:38.359Z</time>
      </trkpt>
      <trkpt lat="50.987368" lon="5.050751">
        <ele>20.944187</ele>
        <time>2026-07-29T13:02:48.001Z</time>
      </trkpt>
      <trkpt lat="50.987516" lon="5.050722">
        <ele>20.872611</ele>
        <time>2026-07-29T13:03:03.065Z</time>
      </trkpt>
      <trkpt lat="50.987663" lon="5.050647">
        <ele>20.798504</ele>
        <time>2026-07-29T13:03:18.724Z</time>
      </trkpt>
      <trkpt lat="50.987701" lon="5.050658">
        <ele>20.779964</ele>
        <time>2026-07-29T13:03:22.577Z</time>
      </trkpt>
      <trkpt lat="50.987748" lon="5.050704">
        <ele>20.753467</ele>
        <time>2026-07-29T13:03:28.186Z</time>
      </trkpt>
      <trkpt lat="50.987766" lon="5.050725">
        <ele>20.742748</ele>
        <time>2026-07-29T13:03:30.427Z</time>
      </trkpt>
      <trkpt lat="50.987816" lon="5.050780">
        <ele>20.721428</ele>
        <time>2026-07-29T13:03:36.583Z</time>
      </trkpt>
      <trkpt lat="50.987821" lon="5.050865">
        <ele>20.710702</ele>
        <time>2026-07-29T13:03:42.024Z</time>
      </trkpt>
      <trkpt lat="50.987810" lon="5.051147">
        <ele>20.675203</ele>
        <time>2026-07-29T13:04:00.116Z</time>
      </trkpt>
      <trkpt lat="50.987811" lon="5.051175">
        <ele>20.671679</ele>
        <time>2026-07-29T13:04:01.855Z</time>
      </trkpt>
      <trkpt lat="50.987817" lon="5.051241">
        <ele>20.663301</ele>
        <time>2026-07-29T13:04:06.117Z</time>
      </trkpt>
      <trkpt lat="50.987821" lon="5.051333">
        <ele>20.651714</ele>
        <time>2026-07-29T13:04:12.060Z</time>
      </trkpt>
      <trkpt lat="50.987904" lon="5.051946">
        <ele>20.572935</ele>
        <time>2026-07-29T13:04:52.021Z</time>
      </trkpt>
      <trkpt lat="50.987915" lon="5.051992">
        <ele>20.566752</ele>
        <time>2026-07-29T13:04:55.117Z</time>
      </trkpt>
      <trkpt lat="50.987813" lon="5.052070">
        <ele>20.544158</ele>
        <time>2026-07-29T13:05:06.479Z</time>
      </trkpt>
      <trkpt lat="50.987783" lon="5.052150">
        <ele>20.532458</ele>
        <time>2026-07-29T13:05:12.455Z</time>
      </trkpt>
      <trkpt lat="50.987782" lon="5.052296">
        <ele>20.514113</ele>
        <time>2026-07-29T13:05:21.672Z</time>
      </trkpt>
      <trkpt lat="50.987835" lon="5.052387">
        <ele>20.498537</ele>
        <time>2026-07-29T13:05:29.533Z</time>
      </trkpt>
      <trkpt lat="50.987873" lon="5.052438">
        <ele>20.488608</ele>
        <time>2026-07-29T13:05:34.516Z</time>
      </trkpt>
      <trkpt lat="50.988145" lon="5.052724">
        <ele>20.423504</ele>
        <time>2026-07-29T13:06:07.215Z</time>
      </trkpt>
      <trkpt lat="50.988315" lon="5.052892">
        <ele>20.383543</ele>
        <time>2026-07-29T13:06:27.372Z</time>
      </trkpt>
      <trkpt lat="50.988507" lon="5.053077">
        <ele>20.482593</ele>
        <time>2026-07-29T13:06:50.313Z</time>
      </trkpt>
      <trkpt lat="50.988791" lon="5.053263">
        <ele>20.722244</ele>
        <time>2026-07-29T13:07:21.772Z</time>
      </trkpt>
      <trkpt lat="50.988783" lon="5.053305">
        <ele>20.743793</ele>
        <time>2026-07-29T13:07:24.626Z</time>
      </trkpt>
      <trkpt lat="50.988777" lon="5.053333">
        <ele>20.758318</ele>
        <time>2026-07-29T13:07:26.529Z</time>
      </trkpt>
      <trkpt lat="50.988769" lon="5.053405">
        <ele>20.794222</ele>
        <time>2026-07-29T13:07:31.315Z</time>
      </trkpt>
      <trkpt lat="50.988739" lon="5.053533">
        <ele>20.861296</ele>
        <time>2026-07-29T13:07:40.207Z</time>
      </trkpt>
      <trkpt lat="50.988721" lon="5.053590">
        <ele>20.892613</ele>
        <time>2026-07-29T13:07:44.383Z</time>
      </trkpt>
      <trkpt lat="50.988532" lon="5.054038">
        <ele>21.157458</ele>
        <time>2026-07-29T13:08:19.432Z</time>
      </trkpt>
      <trkpt lat="50.988386" lon="5.054266">
        <ele>21.317177</ele>
        <time>2026-07-29T13:08:40.387Z</time>
      </trkpt>
      <trkpt lat="50.987948" lon="5.054793">
        <ele>21.745826</ele>
        <time>2026-07-29T13:09:37.552Z</time>
      </trkpt>
      <trkpt lat="50.988138" lon="5.055224">
        <ele>21.909445</ele>
        <time>2026-07-29T13:10:12.019Z</time>
      </trkpt>
      <trkpt lat="50.988151" lon="5.055319">
        <ele>21.937766</ele>
        <time>2026-07-29T13:10:18.316Z</time>
      </trkpt>
      <trkpt lat="50.988131" lon="5.055402">
        <ele>21.963655</ele>
        <time>2026-07-29T13:10:24.199Z</time>
      </trkpt>
      <trkpt lat="50.988192" lon="5.056116">
        <ele>22.173557</ele>
        <time>2026-07-29T13:11:10.908Z</time>
      </trkpt>
      <trkpt lat="50.987955" lon="5.056177">
        <ele>22.284665</ele>
        <time>2026-07-29T13:11:35.130Z</time>
      </trkpt>
      <trkpt lat="50.987625" lon="5.056380">
        <ele>22.448431</ele>
        <time>2026-07-29T13:12:10.917Z</time>
      </trkpt>
      <trkpt lat="50.987515" lon="5.056468">
        <ele>22.505427</ele>
        <time>2026-07-29T13:12:23.481Z</time>
      </trkpt>
      <trkpt lat="50.987475" lon="5.056543">
        <ele>22.534063</ele>
        <time>2026-07-29T13:12:29.773Z</time>
      </trkpt>
      <trkpt lat="50.987506" lon="5.056688">
        <ele>22.578673</ele>
        <time>2026-07-29T13:12:39.489Z</time>
      </trkpt>
      <trkpt lat="50.987701" lon="5.057618">
        <ele>21.864885</ele>
        <time>2026-07-29T13:13:42.157Z</time>
      </trkpt>
      <trkpt lat="50.987798" lon="5.058189">
        <ele>21.376537</ele>
        <time>2026-07-29T13:14:20.767Z</time>
      </trkpt>
      <trkpt lat="50.987819" lon="5.058334">
        <ele>21.253681</ele>
        <time>2026-07-29T13:14:30.522Z</time>
      </trkpt>
      <trkpt lat="50.988061" lon="5.058243">
        <ele>20.927472</ele>
        <time>2026-07-29T13:14:56.696Z</time>
      </trkpt>
      <trkpt lat="50.988146" lon="5.058211">
        <ele>20.812887</ele>
        <time>2026-07-29T13:15:05.854Z</time>
      </trkpt>
      <trkpt lat="50.988499" lon="5.058078">
        <ele>20.337005</ele>
        <time>2026-07-29T13:15:43.462Z</time>
      </trkpt>
      <trkpt lat="50.988663" lon="5.057911">
        <ele>20.228633</ele>
        <time>2026-07-29T13:16:03.517Z</time>
      </trkpt>
      <trkpt lat="50.988795" lon="5.058116">
        <ele>20.205353</ele>
        <time>2026-07-29T13:16:22.519Z</time>
      </trkpt>
      <trkpt lat="50.988841" lon="5.058115">
        <ele>20.199551</ele>
        <time>2026-07-29T13:16:27.206Z</time>
      </trkpt>
      <trkpt lat="50.988929" lon="5.058115">
        <ele>20.188453</ele>
        <time>2026-07-29T13:16:36.228Z</time>
      </trkpt>
      <trkpt lat="50.989016" lon="5.058115">
        <ele>20.177481</ele>
        <time>2026-07-29T13:16:45.156Z</time>
      </trkpt>
      <trkpt lat="50.989058" lon="5.058116">
        <ele>20.172184</ele>
        <time>2026-07-29T13:16:49.348Z</time>
      </trkpt>
      <trkpt lat="50.989077" lon="5.057609">
        <ele>20.131865</ele>
        <time>2026-07-29T13:17:21.482Z</time>
      </trkpt>
      <trkpt lat="50.989069" lon="5.057205">
        <ele>20.099777</ele>
        <time>2026-07-29T13:17:47.218Z</time>
      </trkpt>
      <trkpt lat="50.989124" lon="5.056852">
        <ele>20.070909</ele>
        <time>2026-07-29T13:18:10.500Z</time>
      </trkpt>
      <trkpt lat="50.989187" lon="5.056052">
        <ele>20.050300</ele>
        <time>2026-07-29T13:19:03.561Z</time>
      </trkpt>
      <trkpt lat="50.989719" lon="5.056102">
        <ele>20.259651</ele>
        <time>2026-07-29T13:19:58.817Z</time>
      </trkpt>
      <trkpt lat="50.990243" lon="5.056229">
        <ele>20.467874</ele>
        <time>2026-07-29T13:20:52.371Z</time>
      </trkpt>
      <trkpt lat="50.990323" lon="5.056249">
        <ele>20.499687</ele>
        <time>2026-07-29T13:21:00.578Z</time>
      </trkpt>
      <trkpt lat="50.990425" lon="5.056274">
        <ele>20.540230</ele>
        <time>2026-07-29T13:21:10.985Z</time>
      </trkpt>
      <trkpt lat="50.990445" lon="5.056068">
        <ele>20.591769</ele>
        <time>2026-07-29T13:21:24.179Z</time>
      </trkpt>
      <trkpt lat="50.990536" lon="5.054989">
        <ele>20.895488</ele>
        <time>2026-07-29T13:22:32.749Z</time>
      </trkpt>
      <trkpt lat="50.990532" lon="5.054889">
        <ele>20.926513</ele>
        <time>2026-07-29T13:22:39.079Z</time>
      </trkpt>
      <trkpt lat="50.990529" lon="5.054794">
        <ele>20.955964</ele>
        <time>2026-07-29T13:22:45.121Z</time>
      </trkpt>
      <trkpt lat="50.990588" lon="5.054804">
        <ele>20.985151</ele>
        <time>2026-07-29T13:22:51.104Z</time>
      </trkpt>
      <trkpt lat="50.990646" lon="5.053825">
        <ele>21.289612</ele>
        <time>2026-07-29T13:23:53.551Z</time>
      </trkpt>
      <trkpt lat="50.990718" lon="5.053839">
        <ele>21.325293</ele>
        <time>2026-07-29T13:24:00.969Z</time>
      </trkpt>
      <trkpt lat="50.990797" lon="5.053855">
        <ele>21.364467</ele>
        <time>2026-07-29T13:24:09.238Z</time>
      </trkpt>
      <trkpt lat="50.990826" lon="5.053824">
        <ele>21.381661</ele>
        <time>2026-07-29T13:24:12.878Z</time>
      </trkpt>
      <trkpt lat="50.990902" lon="5.053830">
        <ele>21.419091</ele>
        <time>2026-07-29T13:24:20.840Z</time>
      </trkpt>
      <trkpt lat="50.990900" lon="5.054143">
        <ele>21.516007</ele>
        <time>2026-07-29T13:24:41.379Z</time>
      </trkpt>
      <trkpt lat="50.990941" lon="5.054289">
        <ele>21.565507</ele>
        <time>2026-07-29T13:24:52.002Z</time>
      </trkpt>
      <trkpt lat="50.990862" lon="5.054364">
        <ele>21.610947</ele>
        <time>2026-07-29T13:25:01.440Z</time>
      </trkpt>
      <trkpt lat="50.990867" lon="5.054612">
        <ele>21.694252</ele>
        <time>2026-07-29T13:25:17.789Z</time>
      </trkpt>
      <trkpt lat="50.990868" lon="5.054673">
        <ele>21.714739</ele>
        <time>2026-07-29T13:25:21.857Z</time>
      </trkpt>
      <trkpt lat="50.991056" lon="5.055174">
        <ele>21.910565</ele>
        <time>2026-07-29T13:26:00.254Z</time>
      </trkpt>
      <trkpt lat="50.991008" lon="5.055312">
        <ele>21.963500</ele>
        <time>2026-07-29T13:26:10.631Z</time>
      </trkpt>
      <trkpt lat="50.990965" lon="5.055765">
        <ele>22.117308</ele>
        <time>2026-07-29T13:26:40.326Z</time>
      </trkpt>
      <trkpt lat="50.990911" lon="5.056031">
        <ele>22.211144</ele>
        <time>2026-07-29T13:26:58.271Z</time>
      </trkpt>
      <trkpt lat="50.990909" lon="5.056169">
        <ele>22.257488</ele>
        <time>2026-07-29T13:27:07.122Z</time>
      </trkpt>
      <trkpt lat="50.990908" lon="5.056292">
        <ele>22.298787</ele>
        <time>2026-07-29T13:27:15.001Z</time>
      </trkpt>
      <trkpt lat="50.990803" lon="5.056808">
        <ele>22.480855</ele>
        <time>2026-07-29T13:27:49.328Z</time>
      </trkpt>
      <trkpt lat="50.990801" lon="5.057055">
        <ele>22.563789</ele>
        <time>2026-07-29T13:28:05.140Z</time>
      </trkpt>
      <trkpt lat="50.990712" lon="5.057203">
        <ele>22.552406</ele>
        <time>2026-07-29T13:28:18.189Z</time>
      </trkpt>
      <trkpt lat="50.990629" lon="5.057551">
        <ele>22.521896</ele>
        <time>2026-07-29T13:28:41.884Z</time>
      </trkpt>
      <trkpt lat="50.990549" lon="5.057786">
        <ele>22.499992</ele>
        <time>2026-07-29T13:28:58.825Z</time>
      </trkpt>
      <trkpt lat="50.990525" lon="5.057832">
        <ele>22.495094</ele>
        <time>2026-07-29T13:29:02.590Z</time>
      </trkpt>
      <trkpt lat="50.990462" lon="5.057950">
        <ele>22.482408</ele>
        <time>2026-07-29T13:29:12.345Z</time>
      </trkpt>
      <trkpt lat="50.990433" lon="5.058108">
        <ele>22.468915</ele>
        <time>2026-07-29T13:29:22.769Z</time>
      </trkpt>
      <trkpt lat="50.990351" lon="5.058328">
        <ele>22.447954</ele>
        <time>2026-07-29T13:29:38.961Z</time>
      </trkpt>
      <trkpt lat="50.990206" lon="5.058753">
        <ele>22.408321</ele>
        <time>2026-07-29T13:30:09.574Z</time>
      </trkpt>
      <trkpt lat="50.990085" lon="5.059106">
        <ele>22.375367</ele>
        <time>2026-07-29T13:30:34.926Z</time>
      </trkpt>
      <trkpt lat="50.990067" lon="5.059152">
        <ele>22.370926</ele>
        <time>2026-07-29T13:30:38.368Z</time>
      </trkpt>
      <trkpt lat="50.990015" lon="5.059348">
        <ele>22.353488</ele>
        <time>2026-07-29T13:30:51.861Z</time>
      </trkpt>
      <trkpt lat="50.990020" lon="5.059432">
        <ele>22.346571</ele>
        <time>2026-07-29T13:30:57.229Z</time>
      </trkpt>
      <trkpt lat="50.990041" lon="5.059455">
        <ele>22.343249</ele>
        <time>2026-07-29T13:30:59.880Z</time>
      </trkpt>
      <trkpt lat="50.989646" lon="5.060360">
        <ele>22.117227</ele>
        <time>2026-07-29T13:32:10.044Z</time>
      </trkpt>
      <trkpt lat="50.989492" lon="5.060679">
        <ele>22.028966</ele>
        <time>2026-07-29T13:32:35.353Z</time>
      </trkpt>
      <trkpt lat="50.989257" lon="5.061148">
        <ele>21.897359</ele>
        <time>2026-07-29T13:33:13.449Z</time>
      </trkpt>
      <trkpt lat="50.988830" lon="5.061979">
        <ele>21.566142</ele>
        <time>2026-07-29T13:34:22.239Z</time>
      </trkpt>
      <trkpt lat="50.988826" lon="5.061986">
        <ele>21.559619</ele>
        <time>2026-07-29T13:34:22.850Z</time>
      </trkpt>
      <trkpt lat="50.988830" lon="5.061979">
        <ele>21.553097</ele>
        <time>2026-07-29T13:34:23.461Z</time>
      </trkpt>
      <trkpt lat="50.988826" lon="5.061986">
        <ele>21.546575</ele>
        <time>2026-07-29T13:34:24.072Z</time>
      </trkpt>
      <trkpt lat="50.988647" lon="5.062335">
        <ele>21.236002</ele>
        <time>2026-07-29T13:34:53.385Z</time>
      </trkpt>
      <trkpt lat="50.988719" lon="5.062427">
        <ele>21.134735</ele>
        <time>2026-07-29T13:35:02.958Z</time>
      </trkpt>
      <trkpt lat="50.988929" lon="5.062693">
        <ele>20.840379</ele>
        <time>2026-07-29T13:35:30.709Z</time>
      </trkpt>
      <trkpt lat="50.988994" lon="5.062640">
        <ele>20.760306</ele>
        <time>2026-07-29T13:35:38.241Z</time>
      </trkpt>
      <trkpt lat="50.989044" lon="5.062705">
        <ele>20.689498</ele>
        <time>2026-07-29T13:35:44.986Z</time>
      </trkpt>
      <trkpt lat="50.989149" lon="5.062564">
        <ele>20.538818</ele>
        <time>2026-07-29T13:35:59.166Z</time>
      </trkpt>
      <trkpt lat="50.989163" lon="5.062512">
        <ele>20.499801</ele>
        <time>2026-07-29T13:36:02.802Z</time>
      </trkpt>
      <trkpt lat="50.989235" lon="5.062476">
        <ele>20.417076</ele>
        <time>2026-07-29T13:36:10.580Z</time>
      </trkpt>
      <trkpt lat="50.989267" lon="5.062436">
        <ele>20.372450</ele>
        <time>2026-07-29T13:36:14.785Z</time>
      </trkpt>
      <trkpt lat="50.989283" lon="5.062340">
        <ele>20.303940</ele>
        <time>2026-07-29T13:36:21.166Z</time>
      </trkpt>
      <trkpt lat="50.989432" lon="5.062519">
        <ele>20.099207</ele>
        <time>2026-07-29T13:36:40.464Z</time>
      </trkpt>
      <trkpt lat="50.989559" lon="5.063304">
        <ele>19.873945</ele>
        <time>2026-07-29T13:37:32.171Z</time>
      </trkpt>
      <trkpt lat="50.989549" lon="5.063347">
        <ele>19.896411</ele>
        <time>2026-07-29T13:37:35.065Z</time>
      </trkpt>
      <trkpt lat="50.989545" lon="5.063370">
        <ele>19.908105</ele>
        <time>2026-07-29T13:37:36.593Z</time>
      </trkpt>
      <trkpt lat="50.989500" lon="5.063393">
        <ele>19.944909</ele>
        <time>2026-07-29T13:37:41.291Z</time>
      </trkpt>
      <trkpt lat="50.989299" lon="5.063375">
        <ele>20.101649</ele>
        <time>2026-07-29T13:38:01.798Z</time>
      </trkpt>
      <trkpt lat="50.989097" lon="5.063424">
        <ele>20.260741</ele>
        <time>2026-07-29T13:38:22.961Z</time>
      </trkpt>
      <trkpt lat="50.989008" lon="5.063358">
        <ele>20.337211</ele>
        <time>2026-07-29T13:38:33.008Z</time>
      </trkpt>
      <trkpt lat="50.988841" lon="5.063135">
        <ele>20.507062</ele>
        <time>2026-07-29T13:38:55.841Z</time>
      </trkpt>
      <trkpt lat="50.988826" lon="5.063067">
        <ele>20.542374</ele>
        <time>2026-07-29T13:39:00.626Z</time>
      </trkpt>
      <trkpt lat="50.988883" lon="5.062894">
        <ele>20.638071</ele>
        <time>2026-07-29T13:39:13.578Z</time>
      </trkpt>
      <trkpt lat="50.988987" lon="5.062788">
        <ele>20.734274</ele>
        <time>2026-07-29T13:39:26.749Z</time>
      </trkpt>
      <trkpt lat="50.988929" lon="5.062693">
        <ele>20.799133</ele>
        <time>2026-07-29T13:39:35.687Z</time>
      </trkpt>
      <trkpt lat="50.988719" lon="5.062427">
        <ele>21.008241</ele>
        <time>2026-07-29T13:40:04.215Z</time>
      </trkpt>
      <trkpt lat="50.988647" lon="5.062335">
        <ele>21.080180</ele>
        <time>2026-07-29T13:40:13.949Z</time>
      </trkpt>
      <trkpt lat="50.988548" lon="5.062530">
        <ele>21.133102</ele>
        <time>2026-07-29T13:40:30.369Z</time>
      </trkpt>
      <trkpt lat="50.988231" lon="5.063157">
        <ele>21.118318</ele>
        <time>2026-07-29T13:41:22.040Z</time>
      </trkpt>
      <trkpt lat="50.988112" lon="5.063397">
        <ele>21.112702</ele>
        <time>2026-07-29T13:41:41.265Z</time>
      </trkpt>
      <trkpt lat="50.987752" lon="5.064031">
        <ele>21.097005</ele>
        <time>2026-07-29T13:42:35.498Z</time>
      </trkpt>
      <trkpt lat="50.987649" lon="5.064045">
        <ele>21.093986</ele>
        <time>2026-07-29T13:42:46.041Z</time>
      </trkpt>
      <trkpt lat="50.987569" lon="5.063927">
        <ele>21.090798</ele>
        <time>2026-07-29T13:42:57.056Z</time>
      </trkpt>
      <trkpt lat="50.987549" lon="5.063892">
        <ele>21.089929</ele>
        <time>2026-07-29T13:43:00.154Z</time>
      </trkpt>
      <trkpt lat="50.987500" lon="5.063845">
        <ele>21.088257</ele>
        <time>2026-07-29T13:43:05.902Z</time>
      </trkpt>
      <trkpt lat="50.987166" lon="5.063558">
        <ele>20.947456</ele>
        <time>2026-07-29T13:43:44.781Z</time>
      </trkpt>
      <trkpt lat="50.987077" lon="5.063428">
        <ele>20.866715</ele>
        <time>2026-07-29T13:43:57.071Z</time>
      </trkpt>
      <trkpt lat="50.987048" lon="5.063317">
        <ele>20.816192</ele>
        <time>2026-07-29T13:44:04.828Z</time>
      </trkpt>
      <trkpt lat="50.987004" lon="5.063073">
        <ele>20.709492</ele>
        <time>2026-07-29T13:44:21.011Z</time>
      </trkpt>
      <trkpt lat="50.987048" lon="5.063317">
        <ele>20.602792</ele>
        <time>2026-07-29T13:44:37.124Z</time>
      </trkpt>
      <trkpt lat="50.987077" lon="5.063428">
        <ele>20.552269</ele>
        <time>2026-07-29T13:44:44.802Z</time>
      </trkpt>
      <trkpt lat="50.987018" lon="5.063486">
        <ele>20.505934</ele>
        <time>2026-07-29T13:44:51.847Z</time>
      </trkpt>
      <trkpt lat="50.986919" lon="5.063515">
        <ele>20.438706</ele>
        <time>2026-07-29T13:45:02.056Z</time>
      </trkpt>
      <trkpt lat="50.986837" lon="5.063585">
        <ele>20.376539</ele>
        <time>2026-07-29T13:45:11.451Z</time>
      </trkpt>
      <trkpt lat="50.986710" lon="5.064183">
        <ele>20.111225</ele>
        <time>2026-07-29T13:45:51.748Z</time>
      </trkpt>
      <trkpt lat="50.986690" lon="5.064234">
        <ele>20.085965</ele>
        <time>2026-07-29T13:45:55.550Z</time>
      </trkpt>
      <trkpt lat="50.986647" lon="5.064327">
        <ele>20.037456</ele>
        <time>2026-07-29T13:46:02.928Z</time>
      </trkpt>
      <trkpt lat="50.986608" lon="5.064400">
        <ele>19.997205</ele>
        <time>2026-07-29T13:46:09.060Z</time>
      </trkpt>
      <trkpt lat="50.986481" lon="5.064592">
        <ele>19.879132</ele>
        <time>2026-07-29T13:46:26.886Z</time>
      </trkpt>
      <trkpt lat="50.986359" lon="5.064777">
        <ele>19.704966</ele>
        <time>2026-07-29T13:46:44.075Z</time>
      </trkpt>
      <trkpt lat="50.986319" lon="5.064839">
        <ele>19.647255</ele>
        <time>2026-07-29T13:46:49.699Z</time>
      </trkpt>
      <trkpt lat="50.986318" lon="5.064915">
        <ele>19.597840</ele>
        <time>2026-07-29T13:46:54.547Z</time>
      </trkpt>
      <trkpt lat="50.986317" lon="5.065043">
        <ele>19.514627</ele>
        <time>2026-07-29T13:47:02.704Z</time>
      </trkpt>
      <trkpt lat="50.986319" lon="5.065210">
        <ele>19.406048</ele>
        <time>2026-07-29T13:47:13.416Z</time>
      </trkpt>
      <trkpt lat="50.986634" lon="5.065199">
        <ele>19.080688</ele>
        <time>2026-07-29T13:47:45.473Z</time>
      </trkpt>
      <trkpt lat="50.986773" lon="5.065323">
        <ele>18.916066</ele>
        <time>2026-07-29T13:48:01.908Z</time>
      </trkpt>
      <trkpt lat="50.987049" lon="5.065137">
        <ele>18.606471</ele>
        <time>2026-07-29T13:48:32.730Z</time>
      </trkpt>
      <trkpt lat="50.987057" lon="5.065005">
        <ele>18.520269</ele>
        <time>2026-07-29T13:48:41.271Z</time>
      </trkpt>
      <trkpt lat="50.987087" lon="5.064972">
        <ele>18.482588</ele>
        <time>2026-07-29T13:48:45.142Z</time>
      </trkpt>
      <trkpt lat="50.987173" lon="5.064985">
        <ele>18.393379</ele>
        <time>2026-07-29T13:48:54.034Z</time>
      </trkpt>
      <trkpt lat="50.987223" lon="5.064958">
        <ele>18.338846</ele>
        <time>2026-07-29T13:48:59.464Z</time>
      </trkpt>
      <trkpt lat="50.987264" lon="5.065061">
        <ele>18.259628</ele>
        <time>2026-07-29T13:49:07.404Z</time>
      </trkpt>
      <trkpt lat="50.987291" lon="5.065046">
        <ele>18.230091</ele>
        <time>2026-07-29T13:49:10.331Z</time>
      </trkpt>
      <trkpt lat="50.987291" lon="5.065046">
        <ele>18.230091</ele>
        <time>2026-07-29T13:49:10.331Z</time>
      </trkpt>
      <trkpt lat="50.987346" lon="5.065057">
        <ele>18.172848</ele>
        <time>2026-07-29T13:49:16.072Z</time>
      </trkpt>
      <trkpt lat="50.987623" lon="5.065333">
        <ele>17.922568</ele>
        <time>2026-07-29T13:49:49.589Z</time>
      </trkpt>
      <trkpt lat="50.988015" lon="5.065648">
        <ele>17.678211</ele>
        <time>2026-07-29T13:50:34.190Z</time>
      </trkpt>
      <trkpt lat="50.988077" lon="5.065688">
        <ele>17.640988</ele>
        <time>2026-07-29T13:50:41.038Z</time>
      </trkpt>
      <trkpt lat="50.988275" lon="5.065817">
        <ele>17.521949</ele>
        <time>2026-07-29T13:51:02.717Z</time>
      </trkpt>
      <trkpt lat="50.988560" lon="5.064829">
        <ele>17.141412</ele>
        <time>2026-07-29T13:52:11.580Z</time>
      </trkpt>
      <trkpt lat="50.988655" lon="5.064640">
        <ele>17.056725</ele>
        <time>2026-07-29T13:52:26.825Z</time>
      </trkpt>
      <trkpt lat="50.988803" lon="5.064497">
        <ele>17.065419</ele>
        <time>2026-07-29T13:52:44.168Z</time>
      </trkpt>
      <trkpt lat="50.989196" lon="5.064383">
        <ele>17.209519</ele>
        <time>2026-07-29T13:53:24.175Z</time>
      </trkpt>
      <trkpt lat="50.989279" lon="5.064247">
        <ele>17.252528</ele>
        <time>2026-07-29T13:53:36.136Z</time>
      </trkpt>
      <trkpt lat="50.989300" lon="5.064104">
        <ele>17.285868</ele>
        <time>2026-07-29T13:53:45.416Z</time>
      </trkpt>
      <trkpt lat="50.989642" lon="5.064185">
        <ele>17.410592</ele>
        <time>2026-07-29T13:54:20.373Z</time>
      </trkpt>
      <trkpt lat="50.989834" lon="5.064176">
        <ele>17.479877</ele>
        <time>2026-07-29T13:54:39.858Z</time>
      </trkpt>
      <trkpt lat="50.990004" lon="5.064053">
        <ele>17.547257</ele>
        <time>2026-07-29T13:54:59.027Z</time>
      </trkpt>
      <trkpt lat="50.990101" lon="5.063858">
        <ele>17.603687</ele>
        <time>2026-07-29T13:55:15.124Z</time>
      </trkpt>
      <trkpt lat="50.990122" lon="5.063766">
        <ele>17.625906</ele>
        <time>2026-07-29T13:55:21.475Z</time>
      </trkpt>
      <trkpt lat="50.990119" lon="5.063478">
        <ele>17.759746</ele>
        <time>2026-07-29T13:55:40.326Z</time>
      </trkpt>
      <trkpt lat="50.990107" lon="5.063383">
        <ele>17.863430</ele>
        <time>2026-07-29T13:55:46.653Z</time>
      </trkpt>
      <trkpt lat="50.990028" lon="5.062719">
        <ele>18.586543</ele>
        <time>2026-07-29T13:56:30.977Z</time>
      </trkpt>
      <trkpt lat="50.989987" lon="5.062094">
        <ele>19.258965</ele>
        <time>2026-07-29T13:57:13.349Z</time>
      </trkpt>
      <trkpt lat="50.989929" lon="5.061762">
        <ele>19.627661</ele>
        <time>2026-07-29T13:57:36.967Z</time>
      </trkpt>
      <trkpt lat="50.989959" lon="5.061671">
        <ele>19.737585</ele>
        <time>2026-07-29T13:57:43.969Z</time>
      </trkpt>
      <trkpt lat="50.990068" lon="5.061229">
        <ele>20.245563</ele>
        <time>2026-07-29T13:58:16.183Z</time>
      </trkpt>
      <trkpt lat="50.990069" lon="5.061147">
        <ele>20.333326</ele>
        <time>2026-07-29T13:58:21.676Z</time>
      </trkpt>
      <trkpt lat="50.990065" lon="5.061086">
        <ele>20.398954</ele>
        <time>2026-07-29T13:58:25.780Z</time>
      </trkpt>
      <trkpt lat="50.989999" lon="5.060850">
        <ele>20.675295</ele>
        <time>2026-07-29T13:58:43.183Z</time>
      </trkpt>
      <trkpt lat="50.989885" lon="5.060696">
        <ele>20.815684</ele>
        <time>2026-07-29T13:58:59.116Z</time>
      </trkpt>
      <trkpt lat="50.989694" lon="5.060628">
        <ele>20.957915</ele>
        <time>2026-07-29T13:59:19.839Z</time>
      </trkpt>
      <trkpt lat="50.989688" lon="5.060628">
        <ele>20.962275</ele>
        <time>2026-07-29T13:59:20.460Z</time>
      </trkpt>
      <trkpt lat="50.989645" lon="5.060630">
        <ele>20.993534</ele>
        <time>2026-07-29T13:59:24.985Z</time>
      </trkpt>
      <trkpt lat="50.989419" lon="5.060329">
        <ele>21.207830</ele>
        <time>2026-07-29T13:59:55.730Z</time>
      </trkpt>
      <trkpt lat="50.989384" lon="5.060281">
        <ele>21.241428</ele>
        <time>2026-07-29T14:00:00.498Z</time>
      </trkpt>
      <trkpt lat="50.989355" lon="5.060244">
        <ele>21.268455</ele>
        <time>2026-07-29T14:00:04.400Z</time>
      </trkpt>
      <trkpt lat="50.989295" lon="5.060174">
        <ele>21.322547</ele>
        <time>2026-07-29T14:00:12.139Z</time>
      </trkpt>
      <trkpt lat="50.989152" lon="5.060130">
        <ele>21.428388</ele>
        <time>2026-07-29T14:00:27.277Z</time>
      </trkpt>
      <trkpt lat="50.989082" lon="5.060127">
        <ele>21.479271</ele>
        <time>2026-07-29T14:00:34.478Z</time>
      </trkpt>
      <trkpt lat="50.989022" lon="5.060126">
        <ele>21.522872</ele>
        <time>2026-07-29T14:00:40.712Z</time>
      </trkpt>
      <trkpt lat="50.989035" lon="5.060229">
        <ele>21.570922</ele>
        <time>2026-07-29T14:00:47.426Z</time>
      </trkpt>
      <trkpt lat="50.988978" lon="5.060366">
        <ele>21.646037</ele>
        <time>2026-07-29T14:00:57.916Z</time>
      </trkpt>
      <trkpt lat="50.988788" lon="5.060573">
        <ele>21.813446</ele>
        <time>2026-07-29T14:01:21.108Z</time>
      </trkpt>
      <trkpt lat="50.988566" lon="5.060744">
        <ele>21.992722</ele>
        <time>2026-07-29T14:01:46.142Z</time>
      </trkpt>
      <trkpt lat="50.988541" lon="5.060805">
        <ele>22.026016</ele>
        <time>2026-07-29T14:01:50.762Z</time>
      </trkpt>
      <trkpt lat="50.988459" lon="5.060826">
        <ele>22.039209</ele>
        <time>2026-07-29T14:01:59.178Z</time>
      </trkpt>
      <trkpt lat="50.988345" lon="5.060790">
        <ele>22.042087</ele>
        <time>2026-07-29T14:02:10.898Z</time>
      </trkpt>
      <trkpt lat="50.988267" lon="5.060809">
        <ele>22.044041</ele>
        <time>2026-07-29T14:02:18.838Z</time>
      </trkpt>
      <trkpt lat="50.988151" lon="5.060814">
        <ele>22.046915</ele>
        <time>2026-07-29T14:02:30.674Z</time>
      </trkpt>
      <trkpt lat="50.988133" lon="5.060987">
        <ele>22.049648</ele>
        <time>2026-07-29T14:02:41.844Z</time>
      </trkpt>
      <trkpt lat="50.988121" lon="5.061104">
        <ele>22.051495</ele>
        <time>2026-07-29T14:02:49.446Z</time>
      </trkpt>
      <trkpt lat="50.988084" lon="5.061287">
        <ele>22.054491</ele>
        <time>2026-07-29T14:03:01.761Z</time>
      </trkpt>
      <trkpt lat="50.988032" lon="5.061312">
        <ele>22.055837</ele>
        <time>2026-07-29T14:03:07.290Z</time>
      </trkpt>
      <trkpt lat="50.987931" lon="5.061283">
        <ele>22.058378</ele>
        <time>2026-07-29T14:03:17.651Z</time>
      </trkpt>
      <trkpt lat="50.987845" lon="5.061178">
        <ele>22.061064</ele>
        <time>2026-07-29T14:03:28.664Z</time>
      </trkpt>
      <trkpt lat="50.987231" lon="5.061078">
        <ele>22.076347</ele>
        <time>2026-07-29T14:04:30.527Z</time>
      </trkpt>
      <trkpt lat="50.986558" lon="5.060968">
        <ele>23.078234</ele>
        <time>2026-07-29T14:05:41.337Z</time>
      </trkpt>
      <trkpt lat="50.986558" lon="5.060930">
        <ele>23.131792</ele>
        <time>2026-07-29T14:05:43.881Z</time>
      </trkpt>
      <trkpt lat="50.986560" lon="5.060838">
        <ele>23.261535</ele>
        <time>2026-07-29T14:05:50.111Z</time>
      </trkpt>
      <trkpt lat="50.986567" lon="5.060355">
        <ele>23.942459</ele>
        <time>2026-07-29T14:06:23.460Z</time>
      </trkpt>
      <trkpt lat="50.986331" lon="5.060377">
        <ele>24.471754</ele>
        <time>2026-07-29T14:06:49.641Z</time>
      </trkpt>
      <trkpt lat="50.986235" lon="5.060378">
        <ele>24.686695</ele>
        <time>2026-07-29T14:07:00.297Z</time>
      </trkpt>
      <trkpt lat="50.986223" lon="5.060152">
        <ele>25.006354</ele>
        <time>2026-07-29T14:07:16.401Z</time>
      </trkpt>
      <trkpt lat="50.986213" lon="5.059863">
        <ele>25.414291</ele>
        <time>2026-07-29T14:07:36.689Z</time>
      </trkpt>
      <trkpt lat="50.986117" lon="5.059848">
        <ele>25.630265</ele>
        <time>2026-07-29T14:07:47.355Z</time>
      </trkpt>
      <trkpt lat="50.985986" lon="5.059807">
        <ele>25.929202</ele>
        <time>2026-07-29T14:08:02.166Z</time>
      </trkpt>
      <trkpt lat="50.985908" lon="5.059712">
        <ele>26.104654</ele>
        <time>2026-07-29T14:08:12.953Z</time>
      </trkpt>
      <trkpt lat="50.985762" lon="5.059696">
        <ele>26.068341</ele>
        <time>2026-07-29T14:08:28.691Z</time>
      </trkpt>
      <trkpt lat="50.985557" lon="5.059533">
        <ele>26.011458</ele>
        <time>2026-07-29T14:08:52.928Z</time>
      </trkpt>
      <trkpt lat="50.985679" lon="5.059315">
        <ele>25.965895</ele>
        <time>2026-07-29T14:09:12.111Z</time>
      </trkpt>
      <trkpt lat="50.985557" lon="5.059533">
        <ele>25.920333</ele>
        <time>2026-07-29T14:09:30.653Z</time>
      </trkpt>
      <trkpt lat="50.985108" lon="5.059236">
        <ele>25.799648</ele>
        <time>2026-07-29T14:10:20.807Z</time>
      </trkpt>
      <trkpt lat="50.984796" lon="5.058970">
        <ele>25.711786</ele>
        <time>2026-07-29T14:10:57.816Z</time>
      </trkpt>
      <trkpt lat="50.984623" lon="5.059019">
        <ele>25.668182</ele>
        <time>2026-07-29T14:11:16.371Z</time>
      </trkpt>
      <trkpt lat="50.984522" lon="5.059144">
        <ele>25.689668</ele>
        <time>2026-07-29T14:11:29.767Z</time>
      </trkpt>
      <trkpt lat="50.984370" lon="5.059253">
        <ele>25.731787</ele>
        <time>2026-07-29T14:11:47.072Z</time>
      </trkpt>
      <trkpt lat="50.984244" lon="5.058953">
        <ele>25.789125</ele>
        <time>2026-07-29T14:12:10.543Z</time>
      </trkpt>
      <trkpt lat="50.983919" lon="5.058133">
        <ele>25.943186</ele>
        <time>2026-07-29T14:13:11.633Z</time>
      </trkpt>
      <trkpt lat="50.983837" lon="5.058017">
        <ele>25.970917</ele>
        <time>2026-07-29T14:13:23.064Z</time>
      </trkpt>
      <trkpt lat="50.983785" lon="5.057725">
        <ele>26.019165</ele>
        <time>2026-07-29T14:13:43.612Z</time>
      </trkpt>
      <trkpt lat="50.983722" lon="5.057370">
        <ele>26.077808</ele>
        <time>2026-07-29T14:14:08.852Z</time>
      </trkpt>
      <trkpt lat="50.983745" lon="5.057252">
        <ele>26.097448</ele>
        <time>2026-07-29T14:14:17.266Z</time>
      </trkpt>
      <trkpt lat="50.984069" lon="5.057175">
        <ele>26.656355</ele>
        <time>2026-07-29T14:14:52.570Z</time>
      </trkpt>
      <trkpt lat="50.984237" lon="5.057986">
        <ele>27.816065</ele>
        <time>2026-07-29T14:15:51.259Z</time>
      </trkpt>
      <trkpt lat="50.984389" lon="5.058398">
        <ele>28.464714</ele>
        <time>2026-07-29T14:16:24.060Z</time>
      </trkpt>
      <trkpt lat="50.984533" lon="5.058575">
        <ele>28.857574</ele>
        <time>2026-07-29T14:16:43.774Z</time>
      </trkpt>
      <trkpt lat="50.984467" lon="5.058376">
        <ele>29.163097</ele>
        <time>2026-07-29T14:16:58.869Z</time>
      </trkpt>
      <trkpt lat="50.984419" lon="5.058097">
        <ele>29.555965</ele>
        <time>2026-07-29T14:17:18.249Z</time>
      </trkpt>
      <trkpt lat="50.984575" lon="5.057522">
        <ele>30.084394</ele>
        <time>2026-07-29T14:18:00.091Z</time>
      </trkpt>
      <trkpt lat="50.984695" lon="5.057482">
        <ele>30.140389</ele>
        <time>2026-07-29T14:18:12.962Z</time>
      </trkpt>
      <trkpt lat="50.984794" lon="5.057349">
        <ele>30.199601</ele>
        <time>2026-07-29T14:18:26.583Z</time>
      </trkpt>
      <trkpt lat="50.985233" lon="5.056862">
        <ele>30.444132</ele>
        <time>2026-07-29T14:19:22.502Z</time>
      </trkpt>
      <trkpt lat="50.985027" lon="5.056439">
        <ele>30.597881</ele>
        <time>2026-07-29T14:19:56.694Z</time>
      </trkpt>
      <trkpt lat="50.984976" lon="5.056444">
        <ele>30.621216</ele>
        <time>2026-07-29T14:20:01.803Z</time>
      </trkpt>
      <trkpt lat="50.984836" lon="5.056373">
        <ele>30.688331</ele>
        <time>2026-07-29T14:20:16.654Z</time>
      </trkpt>
      <trkpt lat="50.984725" lon="5.055926">
        <ele>30.786334</ele>
        <time>2026-07-29T14:20:47.661Z</time>
      </trkpt>
      <trkpt lat="50.984682" lon="5.055778">
        <ele>30.569787</ele>
        <time>2026-07-29T14:20:58.239Z</time>
      </trkpt>
      <trkpt lat="50.984418" lon="5.055213">
        <ele>29.635021</ele>
        <time>2026-07-29T14:21:44.818Z</time>
      </trkpt>
      <trkpt lat="50.984377" lon="5.055200">
        <ele>29.546792</ele>
        <time>2026-07-29T14:21:49.249Z</time>
      </trkpt>
      <trkpt lat="50.984153" lon="5.055620">
        <ele>28.815500</ele>
        <time>2026-07-29T14:22:25.510Z</time>
      </trkpt>
      <trkpt lat="50.984090" lon="5.055523">
        <ele>28.630347</ele>
        <time>2026-07-29T14:22:34.714Z</time>
      </trkpt>
      <trkpt lat="50.984079" lon="5.055414">
        <ele>28.483690</ele>
        <time>2026-07-29T14:22:42.016Z</time>
      </trkpt>
      <trkpt lat="50.983852" lon="5.055078">
        <ele>27.828912</ele>
        <time>2026-07-29T14:23:14.495Z</time>
      </trkpt>
      <trkpt lat="50.983538" lon="5.054608">
        <ele>26.975963</ele>
        <time>2026-07-29T14:23:59.982Z</time>
      </trkpt>
      <trkpt lat="50.983363" lon="5.054344">
        <ele>26.745126</ele>
        <time>2026-07-29T14:24:25.386Z</time>
      </trkpt>
      <trkpt lat="50.983325" lon="5.054253">
        <ele>26.679373</ele>
        <time>2026-07-29T14:24:32.614Z</time>
      </trkpt>
      <trkpt lat="50.983211" lon="5.054386">
        <ele>26.544086</ele>
        <time>2026-07-29T14:24:47.316Z</time>
      </trkpt>
      <trkpt lat="50.982811" lon="5.054859">
        <ele>26.067128</ele>
        <time>2026-07-29T14:25:38.272Z</time>
      </trkpt>
      <trkpt lat="50.982570" lon="5.055146">
        <ele>25.779033</ele>
        <time>2026-07-29T14:26:08.644Z</time>
      </trkpt>
      <trkpt lat="50.982465" lon="5.055282">
        <ele>25.649448</ele>
        <time>2026-07-29T14:26:22.221Z</time>
      </trkpt>
      <trkpt lat="50.982570" lon="5.055146">
        <ele>25.519864</ele>
        <time>2026-07-29T14:26:35.774Z</time>
      </trkpt>
      <trkpt lat="50.982811" lon="5.054859">
        <ele>25.331793</ele>
        <time>2026-07-29T14:27:05.984Z</time>
      </trkpt>
      <trkpt lat="50.983211" lon="5.054386">
        <ele>25.521616</ele>
        <time>2026-07-29T14:27:56.598Z</time>
      </trkpt>
      <trkpt lat="50.983325" lon="5.054253">
        <ele>25.575459</ele>
        <time>2026-07-29T14:28:11.161Z</time>
      </trkpt>
      <trkpt lat="50.983800" lon="5.053486">
        <ele>25.833291</ele>
        <time>2026-07-29T14:29:20.976Z</time>
      </trkpt>
      <trkpt lat="50.984100" lon="5.053010">
        <ele>25.991335</ele>
        <time>2026-07-29T14:30:03.764Z</time>
      </trkpt>
      <trkpt lat="50.984235" lon="5.052698">
        <ele>26.036586</ele>
        <time>2026-07-29T14:30:27.780Z</time>
      </trkpt>
      <trkpt lat="50.984382" lon="5.052304">
        <ele>26.091328</ele>
        <time>2026-07-29T14:30:56.938Z</time>
      </trkpt>
      <trkpt lat="50.984440" lon="5.052240">
        <ele>26.104736</ele>
        <time>2026-07-29T14:31:04.081Z</time>
      </trkpt>
      <trkpt lat="50.984587" lon="5.051828">
        <ele>26.161339</ele>
        <time>2026-07-29T14:31:34.357Z</time>
      </trkpt>
      <trkpt lat="50.984726" lon="5.051438">
        <ele>26.214906</ele>
        <time>2026-07-29T14:32:02.694Z</time>
      </trkpt>
      <trkpt lat="50.984561" lon="5.050930">
        <ele>26.283229</ele>
        <time>2026-07-29T14:32:39.393Z</time>
      </trkpt>
      <trkpt lat="50.984424" lon="5.050701">
        <ele>26.320988</ele>
        <time>2026-07-29T14:32:59.855Z</time>
      </trkpt>
      <trkpt lat="50.984287" lon="5.050503">
        <ele>26.884941</ele>
        <time>2026-07-29T14:33:19.055Z</time>
      </trkpt>
      <trkpt lat="50.984234" lon="5.050490">
        <ele>27.096981</ele>
        <time>2026-07-29T14:33:24.664Z</time>
      </trkpt>
      <trkpt lat="50.984192" lon="5.050516">
        <ele>27.275210</ele>
        <time>2026-07-29T14:33:29.400Z</time>
      </trkpt>
      <trkpt lat="50.984041" lon="5.050744">
        <ele>28.098941</ele>
        <time>2026-07-29T14:33:51.325Z</time>
      </trkpt>
      <trkpt lat="50.983947" lon="5.050180">
        <ele>29.551173</ele>
        <time>2026-07-29T14:34:31.718Z</time>
      </trkpt>
      <trkpt lat="50.983854" lon="5.049759">
        <ele>30.661739</ele>
        <time>2026-07-29T14:35:04.250Z</time>
      </trkpt>
      <trkpt lat="50.983851" lon="5.049229">
        <ele>31.981034</ele>
        <time>2026-07-29T14:35:44.190Z</time>
      </trkpt>
      <trkpt lat="50.983867" lon="5.048947">
        <ele>32.685814</ele>
        <time>2026-07-29T14:36:05.615Z</time>
      </trkpt>
      <trkpt lat="50.983854" lon="5.048425">
        <ele>33.441131</ele>
        <time>2026-07-29T14:36:45.700Z</time>
      </trkpt>
      <trkpt lat="50.983857" lon="5.048197">
        <ele>33.441131</ele>
        <time>2026-07-29T14:37:03.627Z</time>
      </trkpt>
      <trkpt lat="50.983857" lon="5.048180">
        <ele>33.441131</ele>
        <time>2026-07-29T14:37:04.976Z</time>
      </trkpt>
      <trkpt lat="50.983858" lon="5.048157">
        <ele>33.441131</ele>
        <time>2026-07-29T14:37:06.821Z</time>
      </trkpt>
      <trkpt lat="50.983861" lon="5.048131">
        <ele>33.441131</ele>
        <time>2026-07-29T14:37:08.931Z</time>
      </trkpt>
      <trkpt lat="50.983705" lon="5.048054">
        <ele>33.441131</ele>
        <time>2026-07-29T14:37:29.578Z</time>
      </trkpt>
      <trkpt lat="50.983618" lon="5.048074">
        <ele>33.441131</ele>
        <time>2026-07-29T14:37:40.719Z</time>
      </trkpt>
      <trkpt lat="50.983547" lon="5.048139">
        <ele>33.441131</ele>
        <time>2026-07-29T14:37:51.320Z</time>
      </trkpt>
      <trkpt lat="50.983531" lon="5.048071">
        <ele>33.441131</ele>
        <time>2026-07-29T14:37:57.215Z</time>
      </trkpt>
      <trkpt lat="50.983476" lon="5.047593">
        <ele>33.441131</ele>
        <time>2026-07-29T14:38:36.105Z</time>
      </trkpt>
      <trkpt lat="50.983489" lon="5.047493">
        <ele>33.441131</ele>
        <time>2026-07-29T14:38:44.231Z</time>
      </trkpt>
      <trkpt lat="50.983483" lon="5.047438">
        <ele>33.441131</ele>
        <time>2026-07-29T14:38:48.592Z</time>
      </trkpt>
      <trkpt lat="50.983468" lon="5.047274">
        <ele>33.441131</ele>
        <time>2026-07-29T14:39:01.541Z</time>
      </trkpt>
      <trkpt lat="50.983437" lon="5.046844">
        <ele>33.441131</ele>
        <time>2026-07-29T14:39:34.611Z</time>
      </trkpt>
      <trkpt lat="50.983402" lon="5.046447">
        <ele>33.441131</ele>
        <time>2026-07-29T14:40:04.243Z</time>
      </trkpt>
      <trkpt lat="50.983395" lon="5.046415">
        <ele>33.441131</ele>
        <time>2026-07-29T14:40:06.711Z</time>
      </trkpt>
      <trkpt lat="50.983358" lon="5.046300">
        <ele>33.441131</ele>
        <time>2026-07-29T14:40:16.096Z</time>
      </trkpt>
      <trkpt lat="50.983320" lon="5.046272">
        <ele>33.441131</ele>
        <time>2026-07-29T14:40:20.969Z</time>
      </trkpt>
      <trkpt lat="50.983392" lon="5.046133">
        <ele>33.441131</ele>
        <time>2026-07-29T14:40:33.898Z</time>
      </trkpt>
      <trkpt lat="50.983498" lon="5.046046">
        <ele>33.441131</ele>
        <time>2026-07-29T14:40:47.320Z</time>
      </trkpt>
    </trkseg>
  </trk>
</gpx>